{
  "type": "FeatureCollection",
  "features": [
    {
      "type": "Feature",
      "properties": {
        "norad_id": 37460,
        "name": "FENGYUN 1C DEB",
        "group": "fengyun-1c-debris",
        "lat": 40.68176532899032,
        "lon": 4.710086818346044,
        "alt_km": 739.1102793230921,
        "timestamp": "2025-12-27T16:33:30.511891+00:00",
        "meta_object_name": "FENGYUN 1C DEB",
        "meta_object_id": "1999-025EJE",
        "meta_epoch": "2025-12-08T10:53:05.307360",
        "meta_mean_motion": 14.47840336,
        "meta_eccentricity": 0.00565903,
        "meta_inclination": 98.3779,
        "meta_ra_of_asc_node": 158.3686,
        "meta_arg_of_pericenter": 303.3518,
        "meta_mean_anomaly": 56.2265,
        "meta_ephemeris_type": 0,
        "meta_classification_type": "U",
        "meta_norad_cat_id": 37460,
        "meta_element_set_no": 999,
        "meta_rev_at_epoch": 82427,
        "meta_bstar": 0.0027403859,
        "meta_mean_motion_dot": 0.00010316,
        "meta_mean_motion_ddot": 0,
        "tle_line1": "1 37460U 99025EJE 25342.45353365  .00010316  00000+0  27404-2 0  9994",
        "tle_line2": "2 37460  98.3779 158.3686 0056590 303.3518  56.2265 14.47840336824279"
      },
      "geometry": {
        "type": "Point",
        "coordinates": [
          4.710086818346044,
          40.68176532899032
        ]
      }
    },
    {
      "type": "Feature",
      "properties": {
        "norad_id": 37461,
        "name": "FENGYUN 1C DEB",
        "group": "fengyun-1c-debris",
        "lat": 27.058495813362402,
        "lon": 73.20282282596787,
        "alt_km": 1735.8323452533723,
        "timestamp": "2025-12-27T16:33:30.511903+00:00",
        "meta_object_name": "FENGYUN 1C DEB",
        "meta_object_id": "1999-025EJF",
        "meta_epoch": "2025-11-27T22:25:56.122176",
        "meta_mean_motion": 12.7907076,
        "meta_eccentricity": 0.0667413,
        "meta_inclination": 99.8664,
        "meta_ra_of_asc_node": 221.8984,
        "meta_arg_of_pericenter": 359.7811,
        "meta_mean_anomaly": 0.291,
        "meta_ephemeris_type": 0,
        "meta_classification_type": "U",
        "meta_norad_cat_id": 37461,
        "meta_element_set_no": 999,
        "meta_rev_at_epoch": 51845,
        "meta_bstar": 0.0053613,
        "meta_mean_motion_dot": 3.048e-05,
        "meta_mean_motion_ddot": 0,
        "tle_line1": "1 37461U 99025EJF 25331.93467734  .00003048  00000+0  53613-2 0  9997",
        "tle_line2": "2 37461  99.8664 221.8984 0667413 359.7811   0.2910 12.79070760518454"
      },
      "geometry": {
        "type": "Point",
        "coordinates": [
          73.20282282596787,
          27.058495813362402
        ]
      }
    },
    {
      "type": "Feature",
      "properties": {
        "norad_id": 37464,
        "name": "FENGYUN 1C DEB",
        "group": "fengyun-1c-debris",
        "lat": -52.06435799024237,
        "lon": -53.365851886752644,
        "alt_km": 1336.1144092548648,
        "timestamp": "2025-12-27T16:33:30.511913+00:00",
        "meta_object_name": "FENGYUN 1C DEB",
        "meta_object_id": "1999-025EJJ",
        "meta_epoch": "2025-12-26T15:52:42.295296",
        "meta_mean_motion": 13.47001222,
        "meta_eccentricity": 0.04543588,
        "meta_inclination": 102.7067,
        "meta_ra_of_asc_node": 288.5041,
        "meta_arg_of_pericenter": 86.6678,
        "meta_mean_anomaly": 278.6297,
        "meta_ephemeris_type": 0,
        "meta_classification_type": "U",
        "meta_norad_cat_id": 37464,
        "meta_element_set_no": 999,
        "meta_rev_at_epoch": 61109,
        "meta_bstar": 0.0036623925,
        "meta_mean_motion_dot": 4.12e-05,
        "meta_mean_motion_ddot": 0,
        "tle_line1": "1 37464U 99025EJJ 25360.66160064  .00004120  00000+0  36624-2 0  9993",
        "tle_line2": "2 37464 102.7067 288.5041 0454358  86.6678 278.6297 13.47001222611097"
      },
      "geometry": {
        "type": "Point",
        "coordinates": [
          -53.365851886752644,
          -52.06435799024237
        ]
      }
    },
    {
      "type": "Feature",
      "properties": {
        "norad_id": 37470,
        "name": "FENGYUN 1C DEB",
        "group": "fengyun-1c-debris",
        "lat": 9.506986144613535,
        "lon": 145.39006001831038,
        "alt_km": 556.9370910568878,
        "timestamp": "2025-12-27T16:33:30.511923+00:00",
        "meta_object_name": "FENGYUN 1C DEB",
        "meta_object_id": "1999-025EJQ",
        "meta_epoch": "2025-12-25T03:48:26.483040",
        "meta_mean_motion": 15.02958146,
        "meta_eccentricity": 0.0002522,
        "meta_inclination": 98.6698,
        "meta_ra_of_asc_node": 144.0229,
        "meta_arg_of_pericenter": 331.861,
        "meta_mean_anomaly": 28.2476,
        "meta_ephemeris_type": 0,
        "meta_classification_type": "U",
        "meta_norad_cat_id": 37470,
        "meta_element_set_no": 999,
        "meta_rev_at_epoch": 65648,
        "meta_bstar": 0.0063719,
        "meta_mean_motion_dot": 0.00086589,
        "meta_mean_motion_ddot": 0,
        "tle_line1": "1 37470U 99025EJQ 25359.15863985  .00086589  00000+0  63719-2 0  9998",
        "tle_line2": "2 37470  98.6698 144.0229 0002522 331.8610  28.2476 15.02958146656483"
      },
      "geometry": {
        "type": "Point",
        "coordinates": [
          145.39006001831038,
          9.506986144613535
        ]
      }
    },
    {
      "type": "Feature",
      "properties": {
        "norad_id": 37474,
        "name": "FENGYUN 1C DEB",
        "group": "fengyun-1c-debris",
        "lat": -55.067684884204354,
        "lon": -137.81407647951858,
        "alt_km": 726.0722360372065,
        "timestamp": "2025-12-27T16:33:30.511933+00:00",
        "meta_object_name": "FENGYUN 1C DEB",
        "meta_object_id": "1999-025EJU",
        "meta_epoch": "2025-12-24T20:27:11.751840",
        "meta_mean_motion": 14.75336931,
        "meta_eccentricity": 0.013197,
        "meta_inclination": 99.1656,
        "meta_ra_of_asc_node": 205.6078,
        "meta_arg_of_pericenter": 97.4054,
        "meta_mean_anomaly": 264.2169,
        "meta_ephemeris_type": 0,
        "meta_classification_type": "U",
        "meta_norad_cat_id": 37474,
        "meta_element_set_no": 999,
        "meta_rev_at_epoch": 62554,
        "meta_bstar": 0.0012519274,
        "meta_mean_motion_dot": 9.722e-05,
        "meta_mean_motion_ddot": 0,
        "tle_line1": "1 37474U 99025EJU 25358.85221935  .00009722  00000+0  12519-2 0  9997",
        "tle_line2": "2 37474  99.1656 205.6078 0131970  97.4054 264.2169 14.75336931625545"
      },
      "geometry": {
        "type": "Point",
        "coordinates": [
          -137.81407647951858,
          -55.067684884204354
        ]
      }
    },
    {
      "type": "Feature",
      "properties": {
        "norad_id": 37477,
        "name": "FENGYUN 1C DEB",
        "group": "fengyun-1c-debris",
        "lat": 59.20990375187332,
        "lon": -8.782938782952487,
        "alt_km": 793.5863654401192,
        "timestamp": "2025-12-27T16:33:30.511943+00:00",
        "meta_object_name": "FENGYUN 1C DEB",
        "meta_object_id": "1999-025EJX",
        "meta_epoch": "2025-12-26T11:31:24.717216",
        "meta_mean_motion": 14.19755591,
        "meta_eccentricity": 0.0037283,
        "meta_inclination": 98.6069,
        "meta_ra_of_asc_node": 4.7653,
        "meta_arg_of_pericenter": 67.1575,
        "meta_mean_anomaly": 293.3532,
        "meta_ephemeris_type": 0,
        "meta_classification_type": "U",
        "meta_norad_cat_id": 37477,
        "meta_element_set_no": 999,
        "meta_rev_at_epoch": 82109,
        "meta_bstar": 0.00064143,
        "meta_mean_motion_dot": 1.325e-05,
        "meta_mean_motion_ddot": 0,
        "tle_line1": "1 37477U 99025EJX 25360.48014719  .00001325  00000+0  64143-3 0  9994",
        "tle_line2": "2 37477  98.6069   4.7653 0037283  67.1575 293.3532 14.19755591821091"
      },
      "geometry": {
        "type": "Point",
        "coordinates": [
          -8.782938782952487,
          59.20990375187332
        ]
      }
    },
    {
      "type": "Feature",
      "properties": {
        "norad_id": 37478,
        "name": "FENGYUN 1C DEB",
        "group": "fengyun-1c-debris",
        "lat": 30.01641910452135,
        "lon": -23.02959274815754,
        "alt_km": 1340.2177714963527,
        "timestamp": "2025-12-27T16:33:30.511953+00:00",
        "meta_object_name": "FENGYUN 1C DEB",
        "meta_object_id": "1999-025EJY",
        "meta_epoch": "2025-12-26T18:17:25.020960",
        "meta_mean_motion": 13.03032975,
        "meta_eccentricity": 0.05477536,
        "meta_inclination": 99.6529,
        "meta_ra_of_asc_node": 341.7805,
        "meta_arg_of_pericenter": 286.993,
        "meta_mean_anomaly": 67.1867,
        "meta_ephemeris_type": 0,
        "meta_classification_type": "U",
        "meta_norad_cat_id": 37478,
        "meta_element_set_no": 999,
        "meta_rev_at_epoch": 56744,
        "meta_bstar": 0.0027070291,
        "meta_mean_motion_dot": 1.697e-05,
        "meta_mean_motion_ddot": 0,
        "tle_line1": "1 37478U 99025EJY 25360.76209515  .00001697  00000+0  27070-2 0  9995",
        "tle_line2": "2 37478  99.6529 341.7805 0547753 286.9930  67.1867 13.03032975567441"
      },
      "geometry": {
        "type": "Point",
        "coordinates": [
          -23.02959274815754,
          30.01641910452135
        ]
      }
    }
  ]
}